{
  "type": "FeatureCollection",
  "features": [
    {
      "type": "Feature",
      "properties": {
        "norad_id": 32376,
        "name": "COSMO-SKYMED 2",
        "group": "resource",
        "lat": 11.57189061223424,
        "lon": -3.008188682199495,
        "alt_km": 623.8780863160537,
        "timestamp": "2025-12-20T03:42:47.048715+00:00",
        "meta_object_name": "COSMO-SKYMED 2",
        "meta_object_id": "2007-059A",
        "meta_epoch": "2025-12-19T20:28:32.535840",
        "meta_mean_motion": 14.82150683,
        "meta_eccentricity": 0.0001354,
        "meta_inclination": 97.8803,
        "meta_ra_of_asc_node": 175.0698,
        "meta_arg_of_pericenter": 82.9674,
        "meta_mean_anomaly": 277.1693,
        "meta_ephemeris_type": 0,
        "meta_classification_type": "U",
        "meta_norad_cat_id": 32376,
        "meta_element_set_no": 999,
        "meta_rev_at_epoch": 97543,
        "meta_bstar": 5.1902e-05,
        "meta_mean_motion_dot": 3.61e-06,
        "meta_mean_motion_ddot": 0,
        "tle_line1": "1 32376U 07059A   25353.85315435  .00000361  00000+0  51902-4 0  9994",
        "tle_line2": "2 32376  97.8803 175.0698 0001354  82.9674 277.1693 14.82150683975434"
      },
      "geometry": {
        "type": "Point",
        "coordinates": [
          -3.008188682199495,
          11.57189061223424
        ]
      }
    },
    {
      "type": "Feature",
      "properties": {
        "norad_id": 32382,
        "name": "RADARSAT-2",
        "group": "resource",
        "lat": 12.886486030000974,
        "lon": -179.38357738134093,
        "alt_km": 792.7977461311348,
        "timestamp": "2025-12-20T03:42:47.048725+00:00",
        "meta_object_name": "RADARSAT-2",
        "meta_object_id": "2007-061A",
        "meta_epoch": "2025-12-19T20:13:05.602080",
        "meta_mean_motion": 14.29983743,
        "meta_eccentricity": 0.000113,
        "meta_inclination": 98.5791,
        "meta_ra_of_asc_node": 358.3295,
        "meta_arg_of_pericenter": 84.744,
        "meta_mean_anomaly": 275.3871,
        "meta_ephemeris_type": 0,
        "meta_classification_type": "U",
        "meta_norad_cat_id": 32382,
        "meta_element_set_no": 999,
        "meta_rev_at_epoch": 94032,
        "meta_bstar": 4.9843e-05,
        "meta_mean_motion_dot": 8.5e-07,
        "meta_mean_motion_ddot": 0,
        "tle_line1": "1 32382U 07061A   25353.84242595  .00000085  00000+0  49843-4 0  9993",
        "tle_line2": "2 32382  98.5791 358.3295 0001130  84.7440 275.3871 14.29983743940327"
      },
      "geometry": {
        "type": "Point",
        "coordinates": [
          -179.38357738134093,
          12.886486030000974
        ]
      }
    },
    {
      "type": "Feature",
      "properties": {
        "norad_id": 32783,
        "name": "CARTOSAT-2A",
        "group": "resource",
        "lat": -41.799327236513186,
        "lon": -143.28586041392145,
        "alt_km": 643.0209309785141,
        "timestamp": "2025-12-20T03:42:47.048736+00:00",
        "meta_object_name": "CARTOSAT-2A",
        "meta_object_id": "2008-021A",
        "meta_epoch": "2025-12-19T20:12:56.566368",
        "meta_mean_motion": 14.78949368,
        "meta_eccentricity": 0.0011297,
        "meta_inclination": 97.7925,
        "meta_ra_of_asc_node": 43.4443,
        "meta_arg_of_pericenter": 341.6051,
        "meta_mean_anomaly": 18.475,
        "meta_ephemeris_type": 0,
        "meta_classification_type": "U",
        "meta_norad_cat_id": 32783,
        "meta_element_set_no": 999,
        "meta_rev_at_epoch": 95229,
        "meta_bstar": 0.000111,
        "meta_mean_motion_dot": 7.69e-06,
        "meta_mean_motion_ddot": 0,
        "tle_line1": "1 32783U 08021A   25353.84232137  .00000769  00000+0  11100-3 0  9999",
        "tle_line2": "2 32783  97.7925  43.4443 0011297 341.6051  18.4750 14.78949368952297"
      },
      "geometry": {
        "type": "Point",
        "coordinates": [
          -143.28586041392145,
          -41.799327236513186
        ]
      }
    },
    {
      "type": "Feature",
      "properties": {
        "norad_id": 33320,
        "name": "HUANJING 1A (HJ-1A)",
        "group": "resource",
        "lat": -26.337424810217517,
        "lon": 158.326552770128,
        "alt_km": 637.5299461712357,
        "timestamp": "2025-12-20T03:42:47.048746+00:00",
        "meta_object_name": "HUANJING 1A (HJ-1A)",
        "meta_object_id": "2008-041A",
        "meta_epoch": "2025-12-19T21:55:42.135168",
        "meta_mean_motion": 14.83413838,
        "meta_eccentricity": 0.0019635,
        "meta_inclination": 97.6535,
        "meta_ra_of_asc_node": 341.9125,
        "meta_arg_of_pericenter": 11.5846,
        "meta_mean_anomaly": 348.5816,
        "meta_ephemeris_type": 0,
        "meta_classification_type": "U",
        "meta_norad_cat_id": 33320,
        "meta_element_set_no": 999,
        "meta_rev_at_epoch": 93182,
        "meta_bstar": 9.78e-05,
        "meta_mean_motion_dot": 7.54e-06,
        "meta_mean_motion_ddot": 0,
        "tle_line1": "1 33320U 08041A   25353.91368212  .00000754  00000+0  97800-4 0  9997",
        "tle_line2": "2 33320  97.6535 341.9125 0019635  11.5846 348.5816 14.83413838931823"
      },
      "geometry": {
        "type": "Point",
        "coordinates": [
          158.326552770128,
          -26.337424810217517
        ]
      }
    },
    {
      "type": "Feature",
      "properties": {
        "norad_id": 33321,
        "name": "HUANJING 1B (HJ-1B)",
        "group": "resource",
        "lat": 51.58330333326469,
        "lon": -23.922908041052946,
        "alt_km": 589.0172341012103,
        "timestamp": "2025-12-20T03:42:47.048757+00:00",
        "meta_object_name": "HUANJING 1B (HJ-1B)",
        "meta_object_id": "2008-041B",
        "meta_epoch": "2025-12-19T21:00:06.607872",
        "meta_mean_motion": 14.82839443,
        "meta_eccentricity": 0.0037999,
        "meta_inclination": 97.6396,
        "meta_ra_of_asc_node": 345.5538,
        "meta_arg_of_pericenter": 53.249,
        "meta_mean_anomaly": 307.2203,
        "meta_ephemeris_type": 0,
        "meta_classification_type": "U",
        "meta_norad_cat_id": 33321,
        "meta_element_set_no": 999,
        "meta_rev_at_epoch": 93183,
        "meta_bstar": 0.00015537,
        "meta_mean_motion_dot": 1.222e-05,
        "meta_mean_motion_ddot": 0,
        "tle_line1": "1 33321U 08041B   25353.87507648  .00001222  00000+0  15537-3 0  9998",
        "tle_line2": "2 33321  97.6396 345.5538 0037999  53.2490 307.2203 14.82839443931834"
      },
      "geometry": {
        "type": "Point",
        "coordinates": [
          -23.922908041052946,
          51.58330333326469
        ]
      }
    },
    {
      "type": "Feature",
      "properties": {
        "norad_id": 33331,
        "name": "GEOEYE 1",
        "group": "resource",
        "lat": -79.57734361809332,
        "lon": 116.29315446222894,
        "alt_km": 683.5372062035167,
        "timestamp": "2025-12-20T03:42:47.048767+00:00",
        "meta_object_name": "GEOEYE 1",
        "meta_object_id": "2008-042A",
        "meta_epoch": "2025-12-19T18:15:22.928256",
        "meta_mean_motion": 14.64709112,
        "meta_eccentricity": 0.0002801,
        "meta_inclination": 98.1245,
        "meta_ra_of_asc_node": 64.9529,
        "meta_arg_of_pericenter": 254.2617,
        "meta_mean_anomaly": 105.8277,
        "meta_ephemeris_type": 0,
        "meta_classification_type": "U",
        "meta_norad_cat_id": 33331,
        "meta_element_set_no": 999,
        "meta_rev_at_epoch": 92388,
        "meta_bstar": 8.4483e-05,
        "meta_mean_motion_dot": 4.02e-06,
        "meta_mean_motion_ddot": 0,
        "tle_line1": "1 33331U 08042A   25353.76068204  .00000402  00000+0  84483-4 0  9994",
        "tle_line2": "2 33331  98.1245  64.9529 0002801 254.2617 105.8277 14.64709112923882"
      },
      "geometry": {
        "type": "Point",
        "coordinates": [
          116.29315446222894,
          -79.57734361809332
        ]
      }
    },
    {
      "type": "Feature",
      "properties": {
        "norad_id": 33396,
        "name": "THEOS",
        "group": "resource",
        "lat": 23.158471564026442,
        "lon": 48.32041087700987,
        "alt_km": 824.2597788480261,
        "timestamp": "2025-12-20T03:42:47.048778+00:00",
        "meta_object_name": "THEOS",
        "meta_object_id": "2008-049A",
        "meta_epoch": "2025-12-19T20:50:20.857344",
        "meta_mean_motion": 14.20097574,
        "meta_eccentricity": 0.0001167,
        "meta_inclination": 98.5863,
        "meta_ra_of_asc_node": 51.7479,
        "meta_arg_of_pericenter": 95.8421,
        "meta_mean_anomaly": 264.2889,
        "meta_ephemeris_type": 0,
        "meta_classification_type": "U",
        "meta_norad_cat_id": 33396,
        "meta_element_set_no": 999,
        "meta_rev_at_epoch": 89251,
        "meta_bstar": 5.857e-05,
        "meta_mean_motion_dot": 8.2e-07,
        "meta_mean_motion_ddot": 0,
        "tle_line1": "1 33396U 08049A   25353.86829696  .00000082  00000+0  58570-4 0  9995",
        "tle_line2": "2 33396  98.5863  51.7479 0001167  95.8421 264.2889 14.20097574892515"
      },
      "geometry": {
        "type": "Point",
        "coordinates": [
          48.32041087700987,
          23.158471564026442
        ]
      }
    }
  ]
}